STARLINK-35943          
1 66927U 25286C   26005.19215765 -.00469704  00000+0 -95722-2 0  9990
2 66927  53.1591 295.6160 0001215  65.8337 294.2798 15.47412097  5664
STARLINK-35944          
1 66928U 25286D   26005.16670139  .00065679  00000+0  16405-2 0  9990
2 66928  53.1598 295.8468 0001578  98.3711  64.8781 15.39570188  5754
STARLINK-36169          
1 66929U 25286E   26005.16670139  .00063592  00000+0  15885-2 0  9994
2 66929  53.1593 295.9500 0001256 103.8236   7.8920 15.39583257  5758
STARLINK-36206          
1 66930U 25286F   26005.06202255  .00082731  00000+0  14777-2 0  9990
2 66930  53.1600 296.2251 0001742  79.0010 281.1195 15.49349084  5648
STARLINK-36130          
1 66931U 25286G   26005.09560049  .00066669  00000+0  16620-2 0  9993
2 66931  53.1606 296.4406 0001025  81.3990 278.7131 15.39623051  5646
STARLINK-36177          
1 66932U 25286H   26005.16670139  .00086291  00000+0  21443-2 0  9996
2 66932  53.1597 295.8966 0001245  91.9292  45.5259 15.39600679  5750
STARLINK-36157          
1 66933U 25286J   26003.25477073  .00171097  00000+0  30092-2 0  9996
2 66933  53.1603 304.8537 0000147 328.0965  32.0035 15.49386556  5361
STARLINK-36153          
1 66934U 25286K   26005.08631172  .00060588  00000+0  15125-2 0  9994
2 66934  53.1606 296.3781 0000934 100.4084 259.7026 15.39623970  5641
STARLINK-36127          
1 66935U 25286L   26005.10024094  .00039081  00000+0  98118-3 0  9995
2 66935  53.1602 296.4630 0001293  75.6686 284.4462 15.39645609  5644
STARLINK-36160          
1 66936U 25286M   26005.16670139  .00083992  00000+0  20898-2 0  9998
2 66936  53.1599 295.7944 0001786 106.4719  82.4971 15.39574245  5757
STARLINK-36165          
1 66937U 25286N   26005.12421629 -.00203663  00000+0 -38291-2 0  9990
2 66937  53.1605 295.9015 0004447  32.6221 327.5061 15.48698763  5656
STARLINK-36155          
1 66938U 25286P   26005.18829124  .00104172  00000+0  18539-2 0  9995
2 66938  53.1591 295.5900 0001430  70.8689 289.2475 15.49344282  5660
