CCSDS_OMM_VERS = 2.0
CREATION_DATE  = 
ORIGINATOR     = 

OBJECT_NAME    = STARLINK-35943
OBJECT_ID      = 2025-286C
CENTER_NAME    = EARTH
REF_FRAME      = TEME
TIME_SYSTEM    = UTC
MEAN_ELEMENT_THEORY = SGP/SGP4

EPOCH          = 2026-01-05T04:36:42.420960
MEAN_MOTION    = 15.47412097
ECCENTRICITY   = .0001215
INCLINATION    = 53.1591
RA_OF_ASC_NODE = 295.6160
ARG_OF_PERICENTER = 65.8337
MEAN_ANOMALY   = 294.2798

EPHEMERIS_TYPE = 0
CLASSIFICATION_TYPE = U
NORAD_CAT_ID   = 66927
ELEMENT_SET_NO = 999
REV_AT_EPOCH   = 566
BSTAR          = -.95722E-2
MEAN_MOTION_DOT = -.469704E-2
MEAN_MOTION_DDOT = 0

CCSDS_OMM_VERS = 2.0
CREATION_DATE  = 
ORIGINATOR     = 

OBJECT_NAME    = STARLINK-35944
OBJECT_ID      = 2025-286D
CENTER_NAME    = EARTH
REF_FRAME      = TEME
TIME_SYSTEM    = UTC
MEAN_ELEMENT_THEORY = SGP/SGP4

EPOCH          = 2026-01-05T04:00:03.000096
MEAN_MOTION    = 15.39570188
ECCENTRICITY   = .0001578
INCLINATION    = 53.1598
RA_OF_ASC_NODE = 295.8468
ARG_OF_PERICENTER = 98.3711
MEAN_ANOMALY   = 64.8781

EPHEMERIS_TYPE = 0
CLASSIFICATION_TYPE = U
NORAD_CAT_ID   = 66928
ELEMENT_SET_NO = 999
REV_AT_EPOCH   = 575
BSTAR          = .16405E-2
MEAN_MOTION_DOT = .65679E-3
MEAN_MOTION_DDOT = 0

CCSDS_OMM_VERS = 2.0
CREATION_DATE  = 
ORIGINATOR     = 

OBJECT_NAME    = STARLINK-36169
OBJECT_ID      = 2025-286E
CENTER_NAME    = EARTH
REF_FRAME      = TEME
TIME_SYSTEM    = UTC
MEAN_ELEMENT_THEORY = SGP/SGP4

EPOCH          = 2026-01-05T04:00:03.000096
MEAN_MOTION    = 15.39583257
ECCENTRICITY   = .0001256
INCLINATION    = 53.1593
RA_OF_ASC_NODE = 295.9500
ARG_OF_PERICENTER = 103.8236
MEAN_ANOMALY   = 7.8920

EPHEMERIS_TYPE = 0
CLASSIFICATION_TYPE = U
NORAD_CAT_ID   = 66929
ELEMENT_SET_NO = 999
REV_AT_EPOCH   = 575
BSTAR          = .15885E-2
MEAN_MOTION_DOT = .63592E-3
MEAN_MOTION_DDOT = 0

CCSDS_OMM_VERS = 2.0
CREATION_DATE  = 
ORIGINATOR     = 

OBJECT_NAME    = STARLINK-36206
OBJECT_ID      = 2025-286F
CENTER_NAME    = EARTH
REF_FRAME      = TEME
TIME_SYSTEM    = UTC
MEAN_ELEMENT_THEORY = SGP/SGP4

EPOCH          = 2026-01-05T01:29:18.748320
MEAN_MOTION    = 15.49349084
ECCENTRICITY   = .0001742
INCLINATION    = 53.1600
RA_OF_ASC_NODE = 296.2251
ARG_OF_PERICENTER = 79.0010
MEAN_ANOMALY   = 281.1195

EPHEMERIS_TYPE = 0
CLASSIFICATION_TYPE = U
NORAD_CAT_ID   = 66930
ELEMENT_SET_NO = 999
REV_AT_EPOCH   = 564
BSTAR          = .14777E-2
MEAN_MOTION_DOT = .82731E-3
MEAN_MOTION_DDOT = 0

CCSDS_OMM_VERS = 2.0
CREATION_DATE  = 
ORIGINATOR     = 

OBJECT_NAME    = STARLINK-36130
OBJECT_ID      = 2025-286G
CENTER_NAME    = EARTH
REF_FRAME      = TEME
TIME_SYSTEM    = UTC
MEAN_ELEMENT_THEORY = SGP/SGP4

EPOCH          = 2026-01-05T02:17:39.882336
MEAN_MOTION    = 15.39623051
ECCENTRICITY   = .0001025
INCLINATION    = 53.1606
RA_OF_ASC_NODE = 296.4406
ARG_OF_PERICENTER = 81.3990
MEAN_ANOMALY   = 278.7131

EPHEMERIS_TYPE = 0
CLASSIFICATION_TYPE = U
NORAD_CAT_ID   = 66931
ELEMENT_SET_NO = 999
REV_AT_EPOCH   = 564
BSTAR          = .1662E-2
MEAN_MOTION_DOT = .66669E-3
MEAN_MOTION_DDOT = 0

CCSDS_OMM_VERS = 2.0
CREATION_DATE  = 
ORIGINATOR     = 

OBJECT_NAME    = STARLINK-36177
OBJECT_ID      = 2025-286H
CENTER_NAME    = EARTH
REF_FRAME      = TEME
TIME_SYSTEM    = UTC
MEAN_ELEMENT_THEORY = SGP/SGP4

EPOCH          = 2026-01-05T04:00:03.000096
MEAN_MOTION    = 15.39600679
ECCENTRICITY   = .0001245
INCLINATION    = 53.1597
RA_OF_ASC_NODE = 295.8966
ARG_OF_PERICENTER = 91.9292
MEAN_ANOMALY   = 45.5259

EPHEMERIS_TYPE = 0
CLASSIFICATION_TYPE = U
NORAD_CAT_ID   = 66932
ELEMENT_SET_NO = 999
REV_AT_EPOCH   = 575
BSTAR          = .21443E-2
MEAN_MOTION_DOT = .86291E-3
MEAN_MOTION_DDOT = 0

CCSDS_OMM_VERS = 2.0
CREATION_DATE  = 
ORIGINATOR     = 

OBJECT_NAME    = STARLINK-36157
OBJECT_ID      = 2025-286J
CENTER_NAME    = EARTH
REF_FRAME      = TEME
TIME_SYSTEM    = UTC
MEAN_ELEMENT_THEORY = SGP/SGP4

EPOCH          = 2026-01-03T06:06:52.191072
MEAN_MOTION    = 15.49386556
ECCENTRICITY   = .0000147
INCLINATION    = 53.1603
RA_OF_ASC_NODE = 304.8537
ARG_OF_PERICENTER = 328.0965
MEAN_ANOMALY   = 32.0035

EPHEMERIS_TYPE = 0
CLASSIFICATION_TYPE = U
NORAD_CAT_ID   = 66933
ELEMENT_SET_NO = 999
REV_AT_EPOCH   = 536
BSTAR          = .30092E-2
MEAN_MOTION_DOT = .171097E-2
MEAN_MOTION_DDOT = 0

CCSDS_OMM_VERS = 2.0
CREATION_DATE  = 
ORIGINATOR     = 

OBJECT_NAME    = STARLINK-36153
OBJECT_ID      = 2025-286K
CENTER_NAME    = EARTH
REF_FRAME      = TEME
TIME_SYSTEM    = UTC
MEAN_ELEMENT_THEORY = SGP/SGP4

EPOCH          = 2026-01-05T02:04:17.332608
MEAN_MOTION    = 15.39623970
ECCENTRICITY   = .0000934
INCLINATION    = 53.1606
RA_OF_ASC_NODE = 296.3781
ARG_OF_PERICENTER = 100.4084
MEAN_ANOMALY   = 259.7026

EPHEMERIS_TYPE = 0
CLASSIFICATION_TYPE = U
NORAD_CAT_ID   = 66934
ELEMENT_SET_NO = 999
REV_AT_EPOCH   = 564
BSTAR          = .15125E-2
MEAN_MOTION_DOT = .60588E-3
MEAN_MOTION_DDOT = 0

CCSDS_OMM_VERS = 2.0
CREATION_DATE  = 
ORIGINATOR     = 

OBJECT_NAME    = STARLINK-36127
OBJECT_ID      = 2025-286L
CENTER_NAME    = EARTH
REF_FRAME      = TEME
TIME_SYSTEM    = UTC
MEAN_ELEMENT_THEORY = SGP/SGP4

EPOCH          = 2026-01-05T02:24:20.817216
MEAN_MOTION    = 15.39645609
ECCENTRICITY   = .0001293
INCLINATION    = 53.1602
RA_OF_ASC_NODE = 296.4630
ARG_OF_PERICENTER = 75.6686
MEAN_ANOMALY   = 284.4462

EPHEMERIS_TYPE = 0
CLASSIFICATION_TYPE = U
NORAD_CAT_ID   = 66935
ELEMENT_SET_NO = 999
REV_AT_EPOCH   = 564
BSTAR          = .98118E-3
MEAN_MOTION_DOT = .39081E-3
MEAN_MOTION_DDOT = 0

CCSDS_OMM_VERS = 2.0
CREATION_DATE  = 
ORIGINATOR     = 

OBJECT_NAME    = STARLINK-36160
OBJECT_ID      = 2025-286M
CENTER_NAME    = EARTH
REF_FRAME      = TEME
TIME_SYSTEM    = UTC
MEAN_ELEMENT_THEORY = SGP/SGP4

EPOCH          = 2026-01-05T04:00:03.000096
MEAN_MOTION    = 15.39574245
ECCENTRICITY   = .0001786
INCLINATION    = 53.1599
RA_OF_ASC_NODE = 295.7944
ARG_OF_PERICENTER = 106.4719
MEAN_ANOMALY   = 82.4971

EPHEMERIS_TYPE = 0
CLASSIFICATION_TYPE = U
NORAD_CAT_ID   = 66936
ELEMENT_SET_NO = 999
REV_AT_EPOCH   = 575
BSTAR          = .20898E-2
MEAN_MOTION_DOT = .83992E-3
MEAN_MOTION_DDOT = 0

CCSDS_OMM_VERS = 2.0
CREATION_DATE  = 
ORIGINATOR     = 

OBJECT_NAME    = STARLINK-36165
OBJECT_ID      = 2025-286N
CENTER_NAME    = EARTH
REF_FRAME      = TEME
TIME_SYSTEM    = UTC
MEAN_ELEMENT_THEORY = SGP/SGP4

EPOCH          = 2026-01-05T02:58:52.287456
MEAN_MOTION    = 15.48698763
ECCENTRICITY   = .0004447
INCLINATION    = 53.1605
RA_OF_ASC_NODE = 295.9015
ARG_OF_PERICENTER = 32.6221
MEAN_ANOMALY   = 327.5061

EPHEMERIS_TYPE = 0
CLASSIFICATION_TYPE = U
NORAD_CAT_ID   = 66937
ELEMENT_SET_NO = 999
REV_AT_EPOCH   = 565
BSTAR          = -.38291E-2
MEAN_MOTION_DOT = -.203663E-2
MEAN_MOTION_DDOT = 0

CCSDS_OMM_VERS = 2.0
CREATION_DATE  = 
ORIGINATOR     = 

OBJECT_NAME    = STARLINK-36155
OBJECT_ID      = 2025-286P
CENTER_NAME    = EARTH
REF_FRAME      = TEME
TIME_SYSTEM    = UTC
MEAN_ELEMENT_THEORY = SGP/SGP4

EPOCH          = 2026-01-05T04:31:08.363136
MEAN_MOTION    = 15.49344282
ECCENTRICITY   = .000143
INCLINATION    = 53.1591
RA_OF_ASC_NODE = 295.5900
ARG_OF_PERICENTER = 70.8689
MEAN_ANOMALY   = 289.2475

EPHEMERIS_TYPE = 0
CLASSIFICATION_TYPE = U
NORAD_CAT_ID   = 66938
ELEMENT_SET_NO = 999
REV_AT_EPOCH   = 566
BSTAR          = .18539E-2
MEAN_MOTION_DOT = .104172E-2
MEAN_MOTION_DDOT = 0

